{"type": "FeatureCollection", "features": [{"type": "Feature", "properties": {"norad_id": 28054, "name": "DMSP 5D-3 F16 (USA 172)", "group": "weather", "lat": -3.2645281809190236, "lon": 19.06327536984241, "alt_km": 846.9017119239752, "timestamp": "2025-12-26T23:26:41.799766+00:00", "meta": {"OBJECT_NAME": "DMSP 5D-3 F16 (USA 172)", "OBJECT_ID": "2003-048A", "EPOCH": "2025-12-26T13:44:48.692256", "MEAN_MOTION": 14.14429016, "ECCENTRICITY": 0.00062431, "INCLINATION": 99.0038, "RA_OF_ASC_NODE": 18.1379, "ARG_OF_PERICENTER": 276.4182, "MEAN_ANOMALY": 183.8785, "EPHEMERIS_TYPE": 0, "CLASSIFICATION_TYPE": "U", "NORAD_CAT_ID": 28054, "ELEMENT_SET_NO": 999, "REV_AT_EPOCH": 14508, "BSTAR": 8.8263469e-05, "MEAN_MOTION_DOT": 1.23e-06, "MEAN_MOTION_DDOT": 0}, "tle": {"line1": "1 28054U 03048A   25360.57278579  .00000123  00000+0  88263-4 0  9996", "line2": "2 28054  99.0038  18.1379 0006243 276.4182 183.8785 14.14429016145084"}}, "geometry": {"type": "Point", "coordinates": [19.06327536984241, -3.2645281809190236]}}, {"type": "Feature", "properties": {"norad_id": 28912, "name": "METEOSAT-9 (MSG-2)", "group": "weather", "lat": 8.733442699055313, "lon": 132.37654420906526, "alt_km": 36058.631203608566, "timestamp": "2025-12-26T23:26:41.799816+00:00", "meta": {"OBJECT_NAME": "METEOSAT-9 (MSG-2)", "OBJECT_ID": "2005-049B", "EPOCH": "2025-12-24T18:27:10.310976", "MEAN_MOTION": 1.00268275, "ECCENTRICITY": 0.00719695, "INCLINATION": 8.9553, "RA_OF_ASC_NODE": 55.846, "ARG_OF_PERICENTER": 282.2974, "MEAN_ANOMALY": 77.0088, "EPHEMERIS_TYPE": 0, "CLASSIFICATION_TYPE": "U", "NORAD_CAT_ID": 28912, "ELEMENT_SET_NO": 999, "REV_AT_EPOCH": 524, "BSTAR": 0, "MEAN_MOTION_DOT": 1.45e-06, "MEAN_MOTION_DDOT": 0}, "tle": {"line1": "1 28912U 05049B   25358.76886934  .00000145  00000+0  00000+0 0  9992", "line2": "2 28912   8.9553  55.8460 0071969 282.2974  77.0088  1.00268275  5240"}}, "geometry": {"type": "Point", "coordinates": [132.37654420906526, 8.733442699055313]}}, {"type": "Feature", "properties": {"norad_id": 29522, "name": "DMSP 5D-3 F17 (USA 191)", "group": "weather", "lat": -37.32696888470172, "lon": 12.80544115315618, "alt_km": 854.3918625350898, "timestamp": "2025-12-26T23:26:41.799832+00:00", "meta": {"OBJECT_NAME": "DMSP 5D-3 F17 (USA 191)", "OBJECT_ID": "2006-050A", "EPOCH": "2025-12-26T13:26:26.992896", "MEAN_MOTION": 14.14925425, "ECCENTRICITY": 0.00100074, "INCLINATION": 98.7393, "RA_OF_ASC_NODE": 5.6613, "ARG_OF_PERICENTER": 183.8317, "MEAN_ANOMALY": 176.2782, "EPHEMERIS_TYPE": 0, "CLASSIFICATION_TYPE": "U", "NORAD_CAT_ID": 29522, "ELEMENT_SET_NO": 999, "REV_AT_EPOCH": 98800, "BSTAR": 0.00011417174, "MEAN_MOTION_DOT": 1.77e-06, "MEAN_MOTION_DDOT": 0}, "tle": {"line1": "1 29522U 06050A   25360.56003464  .00000177  00000+0  11417-3 0  9996", "line2": "2 29522  98.7393   5.6613 0010007 183.8317 176.2782 14.14925425988006"}}, "geometry": {"type": "Point", "coordinates": [12.80544115315618, -37.32696888470172]}}, {"type": "Feature", "properties": {"norad_id": 32958, "name": "FENGYUN 3A", "group": "weather", "lat": -81.22965478637914, "lon": 21.76595586442809, "alt_km": 828.865236538627, "timestamp": "2025-12-26T23:26:41.799844+00:00", "meta": {"OBJECT_NAME": "FENGYUN 3A", "OBJECT_ID": "2008-026A", "EPOCH": "2025-12-26T18:47:13.255584", "MEAN_MOTION": 14.19518988, "ECCENTRICITY": 0.0007616, "INCLINATION": 98.6714, "RA_OF_ASC_NODE": 300.015, "ARG_OF_PERICENTER": 264.726, "MEAN_ANOMALY": 95.3047, "EPHEMERIS_TYPE": 0, "CLASSIFICATION_TYPE": "U", "NORAD_CAT_ID": 32958, "ELEMENT_SET_NO": 999, "REV_AT_EPOCH": 91094, "BSTAR": 8.3254e-05, "MEAN_MOTION_DOT": 1.32e-06, "MEAN_MOTION_DDOT": 0}, "tle": {"line1": "1 32958U 08026A   25360.78279231  .00000132  00000+0  83254-4 0  9999", "line2": "2 32958  98.6714 300.0150 0007616 264.7260  95.3047 14.19518988910945"}}, "geometry": {"type": "Point", "coordinates": [21.76595586442809, -81.22965478637914]}}, {"type": "Feature", "properties": {"norad_id": 35491, "name": "GOES 14", "group": "weather", "lat": -1.1204355479961237, "lon": -31.338899254685558, "alt_km": 35833.134259625855, "timestamp": "2025-12-26T23:26:41.799856+00:00", "meta": {"OBJECT_NAME": "GOES 14", "OBJECT_ID": "2009-033A", "EPOCH": "2025-12-26T12:10:38.039808", "MEAN_MOTION": 1.00097067, "ECCENTRICITY": 7.66e-05, "INCLINATION": 1.2376, "RA_OF_ASC_NODE": 85.2609, "ARG_OF_PERICENTER": 194.3443, "MEAN_ANOMALY": 239.8772, "EPHEMERIS_TYPE": 0, "CLASSIFICATION_TYPE": "U", "NORAD_CAT_ID": 35491, "ELEMENT_SET_NO": 999, "REV_AT_EPOCH": 486, "BSTAR": 0, "MEAN_MOTION_DOT": 4.3e-07, "MEAN_MOTION_DDOT": 0}, "tle": {"line1": "1 35491U 09033A   25360.50738472  .00000043  00000+0  00000+0 0  9994", "line2": "2 35491   1.2376  85.2609 0000766 194.3443 239.8772  1.00097067  4866"}}, "geometry": {"type": "Point", "coordinates": [-31.338899254685558, -1.1204355479961237]}}, {"type": "Feature", "properties": {"norad_id": 35951, "name": "DMSP 5D-3 F18 (USA 210)", "group": "weather", "lat": -2.2824226912008236, "lon": 156.95037492672245, "alt_km": 854.0038945609604, "timestamp": "2025-12-26T23:26:41.799868+00:00", "meta": {"OBJECT_NAME": "DMSP 5D-3 F18 (USA 210)", "OBJECT_ID": "2009-057A", "EPOCH": "2025-12-26T17:29:42.131904", "MEAN_MOTION": 14.14778458, "ECCENTRICITY": 0.0011633, "INCLINATION": 98.8851, "RA_OF_ASC_NODE": 337.0609, "ARG_OF_PERICENTER": 25.7025, "MEAN_ANOMALY": 334.4724, "EPHEMERIS_TYPE": 0, "CLASSIFICATION_TYPE": "U", "NORAD_CAT_ID": 35951, "ELEMENT_SET_NO": 999, "REV_AT_EPOCH": 83520, "BSTAR": 0.00017699, "MEAN_MOTION_DOT": 2.97e-06, "MEAN_MOTION_DDOT": 0}, "tle": {"line1": "1 35951U 09057A   25360.72895986  .00000297  00000+0  17699-3 0  9996", "line2": "2 35951  98.8851 337.0609 0011633  25.7025 334.4724 14.14778458835201"}}, "geometry": {"type": "Point", "coordinates": [156.95037492672245, -2.2824226912008236]}}, {"type": "Feature", "properties": {"norad_id": 36411, "name": "EWS-G2 (GOES 15)", "group": "weather", "lat": 0.7642863484863276, "lon": 148.66849221048568, "alt_km": 35797.07739418197, "timestamp": "2025-12-26T23:26:41.799879+00:00", "meta": {"OBJECT_NAME": "EWS-G2 (GOES 15)", "OBJECT_ID": "2010-008A", "EPOCH": "2025-12-26T18:08:44.994048", "MEAN_MOTION": 1.00271008, "ECCENTRICITY": 0.0005656, "INCLINATION": 0.8463, "RA_OF_ASC_NODE": 86.065, "ARG_OF_PERICENTER": 179.6138, "MEAN_ANOMALY": 163.353, "EPHEMERIS_TYPE": 0, "CLASSIFICATION_TYPE": "U", "NORAD_CAT_ID": 36411, "ELEMENT_SET_NO": 999, "REV_AT_EPOCH": 5790, "BSTAR": 0, "MEAN_MOTION_DOT": 6e-07, "MEAN_MOTION_DDOT": 0}, "tle": {"line1": "1 36411U 10008A   25360.75607632  .00000060  00000+0  00000+0 0  9990", "line2": "2 36411   0.8463  86.0650 0005656 179.6138 163.3530  1.00271008 57901"}}, "geometry": {"type": "Point", "coordinates": [148.66849221048568, 0.7642863484863276]}}, {"type": "Feature", "properties": {"norad_id": 36744, "name": "COMS 1", "group": "weather", "lat": 2.9360288248174045, "lon": -144.3799496394411, "alt_km": 35785.48653907109, "timestamp": "2025-12-26T23:26:41.799890+00:00", "meta": {"OBJECT_NAME": "COMS 1", "OBJECT_ID": "2010-032A", "EPOCH": "2025-12-25T12:42:15.782976", "MEAN_MOTION": 1.00270082, "ECCENTRICITY": 8.877e-05, "INCLINATION": 4.3689, "RA_OF_ASC_NODE": 77.8525, "ARG_OF_PERICENTER": 213.8569, "MEAN_ANOMALY": 121.3153, "EPHEMERIS_TYPE": 0, "CLASSIFICATION_TYPE": "U", "NORAD_CAT_ID": 36744, "ELEMENT_SET_NO": 999, "REV_AT_EPOCH": 4934, "BSTAR": 0, "MEAN_MOTION_DOT": -3.24e-06, "MEAN_MOTION_DDOT": 0}, "tle": {"line1": "1 36744U 10032A   25359.52934934 -.00000324  00000+0  00000+0 0  9991", "line2": "2 36744   4.3689  77.8525 0000887 213.8569 121.3153  1.00270082 49343"}}, "geometry": {"type": "Point", "coordinates": [-144.3799496394411, 2.9360288248174045]}}, {"type": "Feature", "properties": {"norad_id": 37214, "name": "FENGYUN 3B", "group": "weather", "lat": 31.767301387255202, "lon": -133.32318261038975, "alt_km": 856.3522247620531, "timestamp": "2025-12-26T23:26:41.799901+00:00", "meta": {"OBJECT_NAME": "FENGYUN 3B", "OBJECT_ID": "2010-059A", "EPOCH": "2025-12-26T18:17:35.992032", "MEAN_MOTION": 14.14794454, "ECCENTRICITY": 0.0021466, "INCLINATION": 98.9887, "RA_OF_ASC_NODE": 40.8359, "ARG_OF_PERICENTER": 317.4441, "MEAN_ANOMALY": 177.6353, "EPHEMERIS_TYPE": 0, "CLASSIFICATION_TYPE": "U", "NORAD_CAT_ID": 37214, "ELEMENT_SET_NO": 999, "REV_AT_EPOCH": 78304, "BSTAR": 0.00014377, "MEAN_MOTION_DOT": 2.32e-06, "MEAN_MOTION_DDOT": 0}, "tle": {"line1": "1 37214U 10059A   25360.76222213  .00000232  00000+0  14377-3 0  9994", "line2": "2 37214  98.9887  40.8359 0021466 317.4441 177.6353 14.14794454783047"}}, "geometry": {"type": "Point", "coordinates": [-133.32318261038975, 31.767301387255202]}}, {"type": "Feature", "properties": {"norad_id": 37849, "name": "SUOMI NPP", "group": "weather", "lat": -49.40610201105729, "lon": 107.80188233374649, "alt_km": 835.1818917259989, "timestamp": "2025-12-26T23:26:41.799911+00:00", "meta": {"OBJECT_NAME": "SUOMI NPP", "OBJECT_ID": "2011-061A", "EPOCH": "2025-12-22T15:10:21.732672", "MEAN_MOTION": 14.19516903, "ECCENTRICITY": 0.00024883, "INCLINATION": 98.7787, "RA_OF_ASC_NODE": 293.8852, "ARG_OF_PERICENTER": 103.0781, "MEAN_ANOMALY": 257.0673, "EPHEMERIS_TYPE": 0, "CLASSIFICATION_TYPE": "U", "NORAD_CAT_ID": 37849, "ELEMENT_SET_NO": 999, "REV_AT_EPOCH": 73339, "BSTAR": 6.3406935e-05, "MEAN_MOTION_DOT": 8.9e-07, "MEAN_MOTION_DDOT": 0}, "tle": {"line1": "1 37849U 11061A   25356.63219598  .00000089  00000+0  63407-4 0  9994", "line2": "2 37849  98.7787 293.8852 0002488 103.0781 257.0673 14.19516903733392"}}, "geometry": {"type": "Point", "coordinates": [107.80188233374649, -49.40610201105729]}}]}